NORAD_CAT_ID,OBJECT_NAME,OBJECT_TYPE,EPOCH,MEAN_MOTION,ECCENTRICITY,INCLINATION,RA_OF_ASC_NODE,ARG_OF_PERICENTER,MEAN_ANOMALY,BSTAR,MEAN_MOTION_DOT,MEAN_MOTION_DDOT,TLE_LINE0,TLE_LINE1,TLE_LINE2,SEMIMAJOR_AXIS,PERIOD,APOGEE,PERIGEE,DECAYED
53994.0,STARLINK-5125,PAYLOAD,2022-10-19 22:00:00,15.73266475,0.000241,53.2187,22.5306,26.3066,275.3233,-0.00054312,-0.00076384,0.0,0 STARLINK-5125,1 53994U 22125AG  22292.91667824 -.00076384  00000-0 -54312-3 0  9990,2 53994  53.2187  22.5306 0002410  26.3066 275.3233 15.73266475  1301,6727.706,91.529,351.19199999999995,347.949,0.0
53994.0,STARLINK-5125,PAYLOAD,2022-10-20 06:00:00,15.73217236,0.0002311,53.219,20.88,26.7685,3.8457,0.00034291,0.00047818,0.0,0 STARLINK-5125,1 53994U 22125AG  22293.25001157  .00047818  00000-0  34291-3 0  9991,2 53994  53.2190  20.8800 0002311  26.7685   3.8457 15.73217236  2636,6727.846,91.532,351.266,348.156,0.0
53994.0,STARLINK-5125,PAYLOAD,2022-10-20 12:00:00,15.73254522,0.0002474,53.2187,19.6437,22.50800000000001,344.8302,-0.00041376,-0.00058433,0.0,0 STARLINK-5125,1 53994U 22125AG  22293.50001157 -.00058433  00000-0 -41376-3 0  9998,2 53994  53.2187  19.6437 0002474  22.5080 344.8302 15.73254522  2677,6727.74,91.53,351.269,347.94,0.0
53994.0,STARLINK-5125,PAYLOAD,2022-10-20 14:00:01,15.73212555,0.0002506999999999,53.2187,19.2327,20.6602,98.9101,-0.00013802,-0.0001996,0.0,0 STARLINK-5125,1 53994U 22125AG  22293.58334491 -.00019960  00000-0 -13802-3 0  9991,2 53994  53.2187  19.2327 0002507  20.6602  98.9101 15.73212555  1300,6727.859,91.532,351.411,348.038,0.0
53994.0,STARLINK-5125,PAYLOAD,2022-10-20 22:00:00,15.73194075,0.000239,53.2181,17.5802,16.9612,191.5485,-0.00012192,-0.00017694,0.0,0 STARLINK-5125,1 53994U 22125AG  22293.91667824 -.00017694  00000-0 -12192-3 0  9990,2 53994  53.2181  17.5802 0002390  16.9612 191.5485 15.73194075  1303,6727.9119999999975,91.534,351.385,348.1690000000001,0.0
53994.0,STARLINK-5125,PAYLOAD,2022-10-21 04:00:00,15.73171045,0.0002222,53.2181,16.3434,18.107,167.0945,0.00069904,0.00098526,0.0,0 STARLINK-5125,1 53994U 22125AG  22294.16667824  .00098526  00000-0  69904-3 0  9992,2 53994  53.2181  16.3434 0002222  18.1070 167.0945 15.73171045  2781,6727.978,91.535,351.338,348.348,0.0
53994.0,STARLINK-5125,PAYLOAD,2022-10-21 14:00:01,15.73228185,0.0002602,53.2184,14.283,20.3511,6.0591,6.2924e-05,8.229e-05,0.0,0 STARLINK-5125,1 53994U 22125AG  22294.58334491  .00008229  00000-0  62924-4 0  9996,2 53994  53.2184  14.2830 0002602  20.3511   6.0591 15.73228185  1302,6727.815,91.532,351.43,347.92900000000014,0.0
53994.0,STARLINK-5125,PAYLOAD,2022-10-21 20:00:01,15.73250132,0.0002575,53.2187,13.0469,19.3021,343.6898,0.00013963,0.00019063,0.0,0 STARLINK-5125,1 53994U 22125AG  22294.83334491  .00019063  00000-0  13963-3 0  9990,2 53994  53.2187  13.0469 0002575  19.3021 343.6898 15.73250132  2884,6727.752,91.53,351.35,347.885,0.0
53994.0,STARLINK-5125,PAYLOAD,2022-10-21 22:00:00,15.73271965,0.0002485999999999,53.219,12.6339,19.9404,95.2934,-0.00013043,-0.00018945,0.0,0 STARLINK-5125,1 53994U 22125AG  22294.91667824 -.00018945  00000-0 -13043-3 0  9997,2 53994  53.2190  12.6339 0002486  19.9404  95.2934 15.73271965  1305,6727.69,91.529,351.228,347.8830000000001,0.0
53994.0,STARLINK-5125,PAYLOAD,2022-10-22 12:00:00,15.73234574,0.0002638999999999,53.2189,9.7483,14.7619,166.2252,-0.00025662,-0.00036541,0.0,0 STARLINK-5125,1 53994U 22125AG  22295.50001157 -.00036541  00000-0 -25662-3 0  9996,2 53994  53.2189   9.7483 0002639  14.7619 166.2252 15.73234574  2994,6727.797,91.531,351.43699999999984,347.886,0.0
53994.0,STARLINK-5125,PAYLOAD,2022-10-22 14:00:01,15.731903699999998,0.0002688,53.219,9.3363,15.3594,277.8801,0.00038609,0.00053896,0.0,0 STARLINK-5125,1 53994U 22125AG  22295.58334491  .00053896  00000-0  38609-3 0  9999,2 53994  53.2190   9.3363 0002688  15.3594 277.8801 15.73190370  1300,6727.9230000000025,91.534,351.596,347.97900000000016,0.0
53994.0,STARLINK-5125,PAYLOAD,2022-10-22 20:00:01,15.73275306,0.0002628999999999,53.2184,8.0982,15.2849,254.6515,-0.00052466,-0.00073862,0.0,0 STARLINK-5125,1 53994U 22125AG  22295.83334491 -.00073862  00000-0 -52466-3 0  9991,2 53994  53.2184   8.0982 0002629  15.2849 254.6515 15.73275306  3044,6727.68,91.529,351.314,347.777,0.0
53994.0,STARLINK-5125,PAYLOAD,2022-10-22 22:00:00,15.73260656,0.0002554,53.2186,7.6854,16.9269,5.2607,-0.00038651,-0.00054665,0.0,0 STARLINK-5125,1 53994U 22125AG  22295.91667824 -.00054665  00000-0 -38651-3 0  9999,2 53994  53.2186   7.6854 0002554  16.9269   5.2607 15.73260656  1301,6727.722,91.53,351.306,347.869,0.0
53994.0,STARLINK-5125,PAYLOAD,2022-10-23 06:00:00,15.73278231,0.0002593,53.2188,6.0356,24.1936,86.9771,-0.00032524,-0.00046179,0.0,0 STARLINK-5125,1 53994U 22125AG  22296.25001157 -.00046179  00000-0 -32524-3 0  9992,2 53994  53.2188   6.0356 0002593  24.1936  86.9771 15.73278231  3115,6727.672,91.529,351.282,347.793,0.0
53994.0,STARLINK-5125,PAYLOAD,2022-10-23 14:00:01,15.73218203,0.0002868,53.2189,4.3881,22.9401,177.2212,0.00030644,0.00042644,0.0,0 STARLINK-5125,1 53994U 22125AG  22296.58334491  .00042644  00000-0  30644-3 0  9990,2 53994  53.2189   4.3881 0002868  22.9401 177.2212 15.73218203  1304,6727.843000000003,91.532,351.63800000000015,347.779,0.0
53994.0,STARLINK-5125,PAYLOAD,2022-10-23 22:00:00,15.73250262,0.0002698,53.219,2.737,21.1708,267.957,-0.00096276,-0.00133929,0.0,0 STARLINK-5125,1 53994U 22125AG  22296.91667824 -.00133929  00000-0 -96276-3 0  9998,2 53994  53.2190   2.7370 0002698  21.1708 267.9570 15.73250262  1308,6727.752,91.53,351.432,347.802,0.0
53994.0,STARLINK-5125,PAYLOAD,2022-10-24 04:00:01,15.73185337,0.00027,53.219,1.499,24.577,241.3286,-0.00088549,-0.00123045,0.0,0 STARLINK-5125,1 53994U 22125AG  22297.16668981 -.00123045  00000-0 -88549-3 0  9993,2 53994  53.2190   1.4990 0002700  24.5770 241.3286 15.73185337  3258,6727.937,91.534,351.619,347.985,0.0
53994.0,STARLINK-5125,PAYLOAD,2022-10-24 12:00:00,15.73070702,0.0003115,53.2188,359.852,27.4585,327.2388,0.00036794,0.00051055,0.0,0 STARLINK-5125,1 53994U 22125AG  22297.50001157  .00051055  00000-0  36794-3 0  9991,2 53994  53.2188 359.8520 0003115  27.4585 327.2388 15.73070702  3303,6728.264,91.541,352.225,348.033,0.0
53994.0,STARLINK-5125,PAYLOAD,2022-10-24 14:00:01,15.73060726,0.0003138,53.2188,359.44,26.5907,80.3066,0.00067544,0.00094695,0.0,0 STARLINK-5125,1 53994U 22125AG  22297.58334491  .00094695  00000-0  67544-3 0  9993,2 53994  53.2188 359.4400 0003138  26.5907  80.3066 15.73060726  1302,6728.292,91.541,352.269,348.046,0.0
53994.0,STARLINK-5125,PAYLOAD,2022-10-24 22:00:00,15.731206,0.0002976999999999,53.2184,357.7891,28.1218,167.5766,0.0002828,0.00039124,0.0,0 STARLINK-5125,1 53994U 22125AG  22297.91667824  .00039124  00000-0  28280-3 0  9999,2 53994  53.2184 357.7891 0002977  28.1218 167.5766 15.73120600  1309,6728.121999999999,91.538,351.99,347.9840000000001,0.0
53994.0,STARLINK-5125,PAYLOAD,2022-10-25 14:00:01,15.73165709,0.0003224,53.2184,354.4925,28.9011,344.5459,0.00066482,0.00093607,0.0,0 STARLINK-5125,1 53994U 22125AG  22298.58334491  .00093607  00000-0  66482-3 0  9996,2 53994  53.2184 354.4925 0003224  28.9011 344.5459 15.73165709  1301,6727.993,91.535,352.027,347.689,0.0
53994.0,STARLINK-5125,PAYLOAD,2022-10-25 20:00:01,15.73230854,0.0003137,53.2184,353.254,29.4574,320.6743,0.00010904,0.0001473,0.0,0 STARLINK-5125,1 53994U 22125AG  22298.83334491  .00014730  00000-0  10904-3 0  9992,2 53994  53.2184 353.2540 0003137  29.4574 320.6743 15.73230854  3514,6727.807,91.531,351.783,347.56199999999984,0.0
53994.0,STARLINK-5125,PAYLOAD,2022-10-25 22:00:01,15.73220061,0.0003058999999999,53.2186,352.841,29.8206,72.622,0.00036393,0.00050816,0.0,0 STARLINK-5125,1 53994U 22125AG  22298.91668981  .00050816  00000-0  36393-3 0  9990,2 53994  53.2186 352.8410 0003059  29.8206  72.6220 15.73220061  1304,6727.8380000000025,91.532,351.761,347.645,0.0
53994.0,STARLINK-5125,PAYLOAD,2022-10-26 14:00:01,15.73215738,0.000329,53.2183,349.5437,26.2653,254.0811,0.00050375,0.00070736,0.0,0 STARLINK-5125,1 53994U 22125AG  22299.58334491  .00070736  00000-0  50375-3 0  9999,2 53994  53.2183 349.5437 0003290  26.2653 254.0811 15.73215738  1304,6727.85,91.532,351.92900000000014,347.50199999999984,0.0
53994.0,STARLINK-5125,PAYLOAD,2022-10-26 20:00:01,15.732819199999998,0.0003078,53.2179,348.305,26.123,230.9481,-0.00064005,-0.00089837,0.0,0 STARLINK-5125,1 53994U 22125AG  22299.83334491 -.00089837  00000-0 -64005-3 0  9996,2 53994  53.2179 348.3050 0003078  26.1230 230.9481 15.73281920  3675,6727.6619999999975,91.528,351.597,347.456,0.0
53994.0,STARLINK-5125,PAYLOAD,2022-10-26 22:00:00,15.73239489,0.000295,53.218,347.8921,25.8062,343.5273,-0.00015946,-0.00022984,0.0,0 STARLINK-5125,1 53994U 22125AG  22299.91667824 -.00022984  00000-0 -15946-3 0  9994,2 53994  53.2180 347.8921 0002950  25.8062 343.5273 15.73239489  1306,6727.783,91.531,351.63199999999995,347.663,0.0
53994.0,STARLINK-5125,PAYLOAD,2022-10-27 04:00:00,15.7324286,0.0002871,53.2181,346.6548,24.9078,321.1516,-0.00030305,-0.00043024,0.0,0 STARLINK-5125,1 53994U 22125AG  22300.16667824 -.00043024  00000-0 -30305-3 0  9998,2 53994  53.2181 346.6548 0002871  24.9078 321.1516 15.73242860  3725,6727.773,91.531,351.57,347.706,0.0
53994.0,STARLINK-5125,PAYLOAD,2022-10-27 14:00:01,15.73227107,0.0003111,53.2178,344.595,19.642,167.6905,0.00011831,0.00016035,0.0,0 STARLINK-5125,1 53994U 22125AG  22300.58335648  .00016035  00000-0  11831-3 0  9993,2 53994  53.2178 344.5950 0003111  19.6420 167.6905 15.73227107  1309,6727.818,91.532,351.776,347.59,0.0
53994.0,STARLINK-5125,PAYLOAD,2022-10-27 18:00:00,15.73257979,0.0003036,53.2178,343.7692,18.3605,33.3848,-0.00046434,-0.00065464,0.0,0 STARLINK-5125,1 53994U 22125AG  22300.75001157 -.00065464  00000-0 -46434-3 0  9996,2 53994  53.2178 343.7692 0003036  18.3605  33.3848 15.73257979  3824,6727.73,91.53,351.63699999999994,347.552,0.0
